ONEWEB-0228             
1 48780U 21045P   24205.06615189  .00000223  00000+0  56301-3 0  9992
2 48780  87.9011  37.3062 0001754  82.4885 277.6445 13.15071234154190
